HODOYOSHI-4             
1 40011U 14033B   26192.17285177  .00000131  00000+0  19794-4 0  9993
2 40011  97.5461  15.8394 0022357 223.7729 136.1716 14.88180467652376
DEIMOS-2                
1 40013U 14033D   26192.16445090  .00000273  00000+0  30814-4 0  9999
2 40013  97.5806  65.8083 0000978  83.6329 276.5002 14.93789624641309
HODOYOSHI-3             
1 40015U 14033F   26191.42517213  .00000607  00000+0  75972-4 0  9991
2 40015  97.6440 353.5338 0031312 278.3892  81.3774 14.85431636651071
SPOT 7                  
1 40053U 14034A   26192.15256963  .00000192  00000+0  48341-4 0  9996
2 40053  98.0621 254.0254 0001555  97.7303 262.4075 14.60978845640634
SKYSAT-B                
1 40072U 14037D   26190.44965851  .00000906  00000+0  10519-3 0  9991
2 40072  98.3850 150.6859 0005112 191.8576 168.2520 14.88083411649278
WORLDVIEW-3 (WV-3)      
1 40115U 14048A   26192.15445182  .00000417  00000+0  55093-4 0  9995
2 40115  97.8557 266.6558 0000984 161.4439 198.6812 14.85060431645463
GAOFEN-2                
1 40118U 14049A   26192.23023317  .00000242  00000+0  38177-4 0  9990
2 40118  98.0101 256.4135 0008017 145.8405 214.3324 14.80925284642794
YAOGAN-21               
1 40143U 14053A   26192.21927626  .00002616  00000+0  10214-3 0  9995
2 40143  97.1470 231.4265 0008216  22.0923 338.0669 15.26723597658629
YAOGAN-22               
1 40275U 14063A   26191.38125657 -.00000011  00000+0  95321-4 0  9994
2 40275 100.7754 343.0425 0006790 135.2333 224.9327 13.15531516562864
ASNARO                  
1 40298U 14070A   26192.19396203  .00005393  00000+0  25486-3 0  9995
2 40298  97.3451 267.6621 0006913  99.7230 260.4786 15.19794321647656
YAOGAN-24               
1 40310U 14072A   26192.21351773  .00000513  00000+0  81977-4 0  9995
2 40310  98.1513 329.7560 0014301 182.3034 177.8111 14.76115709627269
CBERS 4                 
1 40336U 14079A   26192.22373204 -.00000142  00000+0 -34638-4 0  9996
2 40336  98.3523 248.2998 0000936  51.7503 308.3767 14.35514786607404
YAOGAN-26               
1 40362U 14088A   26192.18297333  .00020710  00000+0  39281-3 0  9997
2 40362  97.0645 191.8455 0002536   3.0705 357.0562 15.48339096641414
SMAP                    
1 40376U 15003A   26192.21657315  .00000233  00000+0  54128-4 0  9990
2 40376  98.1282 198.9712 0001569  95.8861 264.2520 14.63387112611136
KOMPSAT-3A              
1 40536U 15014A   26192.18657123  .00019009  00000+0  26282-3 0  9993
2 40536  97.6887 185.3253 0056572  89.7378 271.0357 15.55256340625542
SENTINEL-2A             
1 40697U 15028A   26192.20070123 -.00000200  00000+0 -59785-4 0  9998
2 40697  98.5678 266.7107 0001253  96.4327 263.6999 14.30812953577168
GAOFEN-8                
1 40701U 15030A   26192.22413354  .00011454  00000+0  22962-3 0  9993
2 40701  97.6900  27.0516 0009964 107.8398 252.3939 15.46840958615162
CARBONITE 1 (CBNT-1)    
1 40718U 15032D   26192.19259197  .00001503  00000+0  18795-3 0  9995
2 40718  97.6522   9.2563 0013491 210.8180 149.2244 14.83662002592909
YAOGAN-27               
1 40878U 15040A   26192.20317287 -.00000306  00000+0 -69466-3 0  9991
2 40878 100.1165 177.5445 0008421 153.9880 206.1659 13.16070634520822
GAOFEN-9 01             
1 40894U 15047A   26192.21921676  .00000562  00000+0  75057-4 0  9996
2 40894  97.6271 226.8211 0028665  62.9365 297.4769 14.82930299583758
YAOGAN-28               
1 41026U 15064A   26192.16679101  .00004061  00000+0  15234-3 0  9998
2 41026  97.3097 329.9483 0012043 105.4259 254.8312 15.27726500594349
YAOGAN-29               
1 41038U 15069A   26192.19629061  .00000299  00000+0  43306-4 0  9990
2 41038  98.0028 220.8661 0001069  20.2431 339.8824 14.83105505574182
KENT RIDGE 1            
1 41167U 15077B   26190.95148001  .00002977  00000+0  90645-4 0  9997
2 41167  14.9795  96.6661 0008227 201.1244 158.8739 15.23266301584572
GAOFEN-4                
1 41194U 15083A   26192.01558838 -.00000327  00000+0  00000+0 0  9995
2 41194   0.4151  83.8719 0004461 120.4575 195.9014  1.00269110 38760
JASON-3                 
1 41240U 16002A   26192.15810248 -.00000052  00000+0  40643-4 0  9997
2 41240  66.0417  75.4403 0008222 271.2883  88.7194 12.87628417490337
SENTINEL-3A             
1 41335U 16011A   26192.20098082  .00000041  00000+0  35178-4 0  9996
2 41335  98.6238 259.2385 0001389  91.2614 268.8726 14.26739077541489
ZIYUAN 3-02 (ZY 3-02)   
1 41556U 16033A   26192.19763356  .00002970  00000+0  13513-3 0  9997
2 41556  97.3832 267.5099 0013663 199.1026 160.9699 15.21409721561633
CARTOSAT-2C             
1 41599U 16040A   26192.16695106  .00003732  00000+0  18013-3 0  9993
2 41599  97.4479 251.8128 0009771  57.6037 302.6141 15.19248076557354
SKYSAT-C1               
1 41601U 16040C   26192.05230572  .00005431  00000+0  15359-3 0  9995
2 41601  96.9558 222.4825 0000717 359.4665   0.6579 15.36701959561537
LAPAN-A3                
1 41603U 16040E   26192.20910734  .00002125  00000+0  68417-4 0  9990
2 41603  97.1497 187.5688 0008311 293.5709  66.4661 15.33261896558498
GAOFEN-3                
1 41727U 16049A   26192.15812709 -.00000057  00000+0 -41269-5 0  9994
2 41727  98.4019 199.5821 0001782  88.5894 271.5500 14.42218164522102
