OBJECT_NAME,OBJECT_ID,EPOCH,MEAN_MOTION,ECCENTRICITY,INCLINATION,RA_OF_ASC_NODE,ARG_OF_PERICENTER,MEAN_ANOMALY,EPHEMERIS_TYPE,CLASSIFICATION_TYPE,NORAD_CAT_ID,ELEMENT_SET_NO,REV_AT_EPOCH,BSTAR,MEAN_MOTION_DOT,MEAN_MOTION_DDOT
HODOYOSHI-4,2014-033B,2026-07-11T04:08:54.392928,14.88180467,.0022357,97.5461,15.8394,223.7729,136.1716,0,U,40011,999,65237,.19794E-4,.131E-5,0
DEIMOS-2,2014-033D,2026-07-11T03:56:48.557760,14.93789624,.0000978,97.5806,65.8083,83.6329,276.5002,0,U,40013,999,64130,.30814E-4,.273E-5,0
HODOYOSHI-3,2014-033F,2026-07-10T10:12:14.872032,14.85431636,.00313125,97.6440,353.5338,278.3892,81.3774,0,U,40015,999,65107,.75972489E-4,.607E-5,0
SPOT 7,2014-034A,2026-07-11T03:39:42.016032,14.60978845,.0001555,98.0621,254.0254,97.7303,262.4075,0,U,40053,999,64063,.48341E-4,.192E-5,0
SKYSAT-B,2014-037D,2026-07-09T10:47:30.495264,14.88083411,.00051123,98.3850,150.6859,191.8576,168.2520,0,U,40072,999,64927,.10518908E-3,.906E-5,0
WORLDVIEW-3 (WV-3),2014-048A,2026-07-11T03:42:24.637248,14.85060431,.0000984,97.8557,266.6558,161.4439,198.6812,0,U,40115,999,64546,.55093E-4,.417E-5,0
GAOFEN-2,2014-049A,2026-07-11T05:31:32.145888,14.80925284,.0008017,98.0101,256.4135,145.8405,214.3324,0,U,40118,999,64279,.38177E-4,.242E-5,0
YAOGAN-21,2014-053A,2026-07-11T05:15:45.468864,15.26723597,.0008216,97.1470,231.4265,22.0923,338.0669,0,U,40143,999,65862,.10214E-3,.2616E-4,0
YAOGAN-22,2014-063A,2026-07-10T09:09:00.567648,13.15531516,.00067907,100.7754,343.0425,135.2333,224.9327,0,U,40275,999,56286,.95321425E-4,-.11E-6,0
ASNARO,2014-070A,2026-07-11T04:39:18.319392,15.19794321,.0006913,97.3451,267.6621,99.7230,260.4786,0,U,40298,999,64765,.25486E-3,.5393E-4,0
YAOGAN-24,2014-072A,2026-07-11T05:07:27.931872,14.76115709,.0014301,98.1513,329.7560,182.3034,177.8111,0,U,40310,999,62726,.81977E-4,.513E-5,0
CBERS 4,2014-079A,2026-07-11T05:22:10.448256,14.35514786,.0000936,98.3523,248.2998,51.7503,308.3767,0,U,40336,999,60740,-.34638E-4,-.142E-5,0
YAOGAN-26,2014-088A,2026-07-11T04:23:28.895712,15.48339096,.0002536,97.0645,191.8455,3.0705,357.0562,0,U,40362,999,64141,.39281E-3,.2071E-3,0
SMAP,2015-003A,2026-07-11T05:11:51.920160,14.63387112,.0001569,98.1282,198.9712,95.8861,264.2520,0,U,40376,999,61113,.54128E-4,.233E-5,0
KOMPSAT-3A,2015-014A,2026-07-11T04:28:39.754272,15.55256340,.0056572,97.6887,185.3253,89.7378,271.0357,0,U,40536,999,62554,.26282E-3,.19009E-3,0
SENTINEL-2A,2015-028A,2026-07-11T04:49:00.586272,14.30812953,.0001253,98.5678,266.7107,96.4327,263.6999,0,U,40697,999,57716,-.59785E-4,-.2E-5,0
GAOFEN-8,2015-030A,2026-07-11T05:22:45.137856,15.46840958,.0009964,97.6900,27.0516,107.8398,252.3939,0,U,40701,999,61516,.22962E-3,.11454E-3,0
CARBONITE 1 (CBNT-1),2015-032D,2026-07-11T04:37:19.946208,14.83662002,.0013491,97.6522,9.2563,210.8180,149.2244,0,U,40718,999,59290,.18795E-3,.1503E-4,0
YAOGAN-27,2015-040A,2026-07-11T04:52:34.135968,13.16070634,.0008421,100.1165,177.5445,153.9880,206.1659,0,U,40878,999,52082,-.69466E-3,-.306E-5,0
GAOFEN-9 01,2015-047A,2026-07-11T05:15:40.328064,14.82930299,.0028665,97.6271,226.8211,62.9365,297.4769,0,U,40894,999,58375,.75057E-4,.562E-5,0
YAOGAN-28,2015-064A,2026-07-11T04:00:10.743264,15.27726500,.0012043,97.3097,329.9483,105.4259,254.8312,0,U,41026,999,59434,.15234E-3,.4061E-4,0
YAOGAN-29,2015-069A,2026-07-11T04:42:39.508704,14.83105505,.0001069,98.0028,220.8661,20.2431,339.8824,0,U,41038,999,57418,.43306E-4,.299E-5,0
KENT RIDGE 1,2015-077B,2026-07-09T22:50:07.872864,15.23266301,.00082275,14.9795,96.6661,201.1244,158.8739,0,U,41167,999,58457,.90645004E-4,.2977E-4,0
GAOFEN-4,2015-083A,2026-07-11T00:22:26.836032,1.00269110,.0004461,0.4151,83.8719,120.4575,195.9014,0,U,41194,999,3876,0,-.327E-5,0
JASON-3,2016-002A,2026-07-11T03:47:40.054272,12.87628417,.0008222,66.0417,75.4403,271.2883,88.7194,0,U,41240,999,49033,.40643E-4,-.52E-6,0
SENTINEL-3A,2016-011A,2026-07-11T04:49:24.742848,14.26739077,.0001389,98.6238,259.2385,91.2614,268.8726,0,U,41335,999,54148,.35178E-4,.41E-6,0
ZIYUAN 3-02 (ZY 3-02),2016-033A,2026-07-11T04:44:35.539584,15.21409721,.0013663,97.3832,267.5099,199.1026,160.9699,0,U,41556,999,56163,.13513E-3,.297E-4,0
CARTOSAT-2C,2016-040A,2026-07-11T04:00:24.571584,15.19248076,.0009771,97.4479,251.8128,57.6037,302.6141,0,U,41599,999,55735,.18013E-3,.3732E-4,0
SKYSAT-C1,2016-040C,2026-07-11T01:15:19.214208,15.36701959,.0000717,96.9558,222.4825,359.4665,0.6579,0,U,41601,999,56153,.15359E-3,.5431E-4,0
LAPAN-A3,2016-040E,2026-07-11T05:01:06.874176,15.33261896,.0008311,97.1497,187.5688,293.5709,66.4661,0,U,41603,999,55849,.68417E-4,.2125E-4,0
GAOFEN-3,2016-049A,2026-07-11T03:47:42.180576,14.42218164,.0001782,98.4019,199.5821,88.5894,271.5500,0,U,41727,999,52210,-.41269E-5,-.57E-6,0
